#aV2015  1 28  0  0  0.00000000     288 DD+AD WGS84 FIT  NGA
## 1829 259200.00000000   300.00000000 57050 0.0000000000000
+   31     1  2  3  4  5  6  7  8  9 10 11 12 13 14 15 16 17
+         18 19 20 21 22 23 24 25 27 28 29 30 31 32  0  0  0
+          0  0  0  0  0  0  0  0  0  0  0  0  0  0  0  0  0
+          0  0  0  0  0  0  0  0  0  0  0  0  0  0  0  0  0
+          0  0  0  0  0  0  0  0  0  0  0  0  0  0  0  0  0
++         2  2  2  2  2  2  2  2  2  2  2  2  2  2  2  2  2
++         2  2  2  2  2  2  2  2  2  2  2  2  2  2  0  0  0
++         0  0  0  0  0  0  0  0  0  0  0  0  0  0  0  0  0
++         0  0  0  0  0  0  0  0  0  0  0  0  0  0  0  0  0
++         0  0  0  0  0  0  0  0  0  0  0  0  0  0  0  0  0
%c cc cc ccc ccc cccc cccc cccc cccc ccccc ccccc ccccc ccccc
%c cc cc ccc ccc cccc cccc cccc cccc ccccc ccccc ccccc ccccc
%f  0.0000000  0.000000000  0.00000000000  0.000000000000000
%f  0.0000000  0.000000000  0.00000000000  0.000000000000000
%i    0    0    0    0      0      0      0      0         0
%i    0    0    0    0      0      0      0      0         0
/*      NGA, ST. LOUIS,MO.                                  
/*   EPHEMERIS COMPUTED FROM  1 DAYS OF DATA                
/*   EPOCHA SMOOTHER                                       
/* CCCCCCCCCCCCCCCCCCCCCCCCCCCCCCCCCCCCCCCCCCCCCCCCCCCCCCCCC
*  2015  1 28 11 50  0.00000000
P  1  18350.017544  13364.701584 -13975.193837     -9.663895                    
V  1 -17660.789069  -1280.681851 -24335.832589      0.004343                    
P  2   5469.837220 -15029.935160  21503.620286    544.547601                    
V  2  26243.059346   4611.542792  -3982.712734      0.022884                    
P  3  13371.109936  21656.582129   7517.658150    176.461042                    
V  3    652.412715   9916.615299 -29787.412325      0.229845                    
P  4   8385.771465  16081.326203 -19800.849788     -6.305480                    
V  4 -24324.154064  -2861.371918 -12566.537992     -0.006018                    
P  5   -726.764348 -24234.776519  10582.308514   -286.768072                    
V  5   7484.261274  11751.446756  27460.573039      0.051757                    
P  6  19986.928268  -7570.712648  15750.876361     64.701544                    
V  6  19362.662418   5439.640084 -21958.984528      0.117296                    
P  7  25657.304361   7154.114491   2631.011474    435.445722                    
V  7  -3553.610111   1457.601657  31530.850621      0.032651                    
P  8  -6279.532852  13204.568166  22330.670632     17.328119                    
V  8 -26382.545125  -8845.446611  -2820.394676      0.002104                    
P  9  17314.686765   1358.219755  20089.361644    -69.172433                    
V  9 -15607.988510  20236.930745  12068.581948     -0.122349                    
P 10  12597.000362  -9850.017924  20768.848213   -160.772661                    
V 10   9863.000376  25574.811578   6457.619149     -0.017718                    
P 11  12598.805887  13848.642341 -19408.618493   -553.960348                    
V 11 -23259.899455   5375.561618 -11428.639694     -0.026290                    
P 12 -10704.180217 -23946.134667   4799.166837    264.912659                    
V 12   -186.632616  -6369.862119 -31459.273641      0.030542                    
P 13   9901.479501 -21253.410487 -12747.426643    -82.967526                    
V 13  12769.718556  -9596.606702  26109.568025     -0.035184                    
P 14 -21025.207882  14374.011510  -7039.281853     92.663577                    
V 14   4649.929840  -8440.975859 -30285.542837     -0.035347                    
P 15  -4356.857471 -17683.340656 -19311.137064   -228.959930                    
V 15  16391.566091 -18344.699703  13474.168986     -0.022226                    
P 16   -527.661813  23991.215588  10901.534446   -161.207376                    
V 16  -5759.526486 -12931.270789  28388.083408      0.032214                    
P 17  20843.313565 -13248.966457  -9182.908630   -152.632014                    
V 17  -6411.788236  10587.439163 -29142.983171     -0.022824                    
P 18 -17345.237227  -5442.829875 -18988.450259    375.485140                    
V 18  -7360.635928 -24113.494550  12997.065124      0.027152                    
P 19  -2080.565647  19354.176916 -18030.288883   -498.386815                    
V 19 -17420.090042  14651.523005  18355.434962     -0.014921                    
P 20  17932.597641   6538.058359  18352.996787    283.568162                    
V 20   7765.129787  22507.247338 -15358.899903      0.041452                    
P 21 -26478.919887  -3353.286117  -1462.683666   -410.486449                    
V 21  -2049.641075  -3749.667092  30819.755822     -0.041672                    
P 22 -13479.951509   8956.745364 -20826.935452    312.130220                    
V 22 -10146.071670 -25160.440105  -4381.531100      0.040493                    
P 23  10570.343898  11451.744794  21616.628087    -84.833634                    
V 23 -18042.559644  20368.690201  -2403.716394     -0.026486                    
P 24 -15672.226386 -14216.494610 -16162.956781    -42.500215                    
V 24  20474.366741   1481.337671 -21051.161394     -0.005911                    
P 25 -16188.145633 -14440.854439  15352.224076      0.262771                    
V 25  -5138.086715 -18915.927403 -22938.248237     -0.026006                    
P 27 -10506.666618  22482.047917  -9350.206412     47.471195                    
V 27  -9544.904248   7491.877640  28855.076719      0.026732                    
P 28  14064.868145  -2878.651492 -21726.469187    415.581708                    
V 28   7852.050104  27952.145080   1246.152406      0.025561                    
P 29 -15058.791802  -5196.071151  21275.585095    588.672707                    
V 29  18030.679419 -19995.758293   7928.967010      0.022494                    
P 30  25299.781317    685.819189  -8136.719456    -86.066458                    
V 30   9309.441746   5200.875170  29344.211622      0.005895                    
P 31 -18128.637915   8410.156054  17806.290610    324.546014                    
V 31 -21424.216800  -5769.547562 -18911.550620     -0.008179                    
P 32   3726.527361  26228.698870  -4401.295299   -237.155242                    
V 32  -4061.259609  -4616.371484 -30439.277823      0.089444                    
EOF
